{
  "norad_id": 57986,
  "name": "YAOGAN-39 03A",
  "history": [
    {
      "epoch": "2026-03-26T16:00:04.739328",
      "apogee_km": 499.09726443376803,
      "perigee_km": 494.4166991130978,
      "latitude_deg": -8.699980321697485,
      "longitude_deg": -149.39473407994956,
      "semi_major_axis_km": 6874.893981773433,
      "eccentricity": 0.00034041,
      "inclination_deg": 35.0005,
      "raan_deg": 71.4824,
      "arg_perigee_deg": 157.5859,
      "mean_anomaly_deg": 202.5005,
      "mean_motion_rev_day": 15.23013504
    }
  ]
}