{"fetched_at":"2026-03-29T02:12:04Z","count":15717,"tles":[{"name":"YAOGAN-39 03A","line1":"1 57986U 23152A   26085.66672152  .00000533  00000+0  23666-4 0  9991","line2":"2 57986  35.0005  71.4824 0003404 157.5859 202.5005 15.23013504137859","category":"Other"}]}